[
  {
    "OBJECT_NAME": "STARLINK-35025",
    "OBJECT_ID": "25192AC",
    "EPOCH": "2025-11-11T00:38:44.669760",
    "MEAN_MOTION": 15.39636769,
    "ECCENTRICITY": 0.0001892,
    "INCLINATION": 53.1579,
    "RA_OF_ASC_NODE": 70.8273,
    "ARG_OF_PERICENTER": 78.373,
    "MEAN_ANOMALY": 281.7487,
    "EPHEMERIS_TYPE": 0,
    "CLASSIFICATION_TYPE": "U",
    "NORAD_CAT_ID": 65430,
    "ELEMENT_SET_NO": 999,
    "REV_AT_EPOCH": 1111,
    "BSTAR": 0.0023551,
    "MEAN_MOTION_DOT": 0.00095038,
    "MEAN_MOTION_DDOT": 0.0,
    "TLE_LINE1": "1 65430U 25192AC  25315.02690590  .00095038  00000+0  23551-2 0  9996",
    "TLE_LINE2": "2 65430  53.1579  70.8273 0001892  78.3730 281.7487 15.39636769 11111",
    "COMMENT": "Grouped by shell and plane from TLE"
  },
  {
    "OBJECT_NAME": "STARLINK-35034",
    "OBJECT_ID": "25192AD",
    "EPOCH": "2025-11-10T14:57:49.308768",
    "MEAN_MOTION": 15.39637177,
    "ECCENTRICITY": 0.0002084,
    "INCLINATION": 53.1587,
    "RA_OF_ASC_NODE": 72.5729,
    "ARG_OF_PERICENTER": 102.1771,
    "MEAN_ANOMALY": 257.9467,
    "EPHEMERIS_TYPE": 0,
    "CLASSIFICATION_TYPE": "U",
    "NORAD_CAT_ID": 65431,
    "ELEMENT_SET_NO": 999,
    "REV_AT_EPOCH": 1105,
    "BSTAR": 0.0025888,
    "MEAN_MOTION_DOT": 0.00104641,
    "MEAN_MOTION_DDOT": 0.0,
    "TLE_LINE1": "1 65431U 25192AD  25314.62348737  .00104641  00000+0  25888-2 0  9991",
    "TLE_LINE2": "2 65431  53.1587  72.5729 0002084 102.1771 257.9467 15.39637177 11051",
    "COMMENT": "Grouped by shell and plane from TLE"
  },
  {
    "OBJECT_NAME": "STARLINK-35560",
    "OBJECT_ID": "25235B",
    "EPOCH": "2025-11-11T08:00:03.000384",
    "MEAN_MOTION": 15.49293649,
    "ECCENTRICITY": 0.0001177,
    "INCLINATION": 53.1599,
    "RA_OF_ASC_NODE": 77.286,
    "ARG_OF_PERICENTER": 77.0182,
    "MEAN_ANOMALY": 103.4077,
    "EPHEMERIS_TYPE": 0,
    "CLASSIFICATION_TYPE": "U",
    "NORAD_CAT_ID": 66059,
    "ELEMENT_SET_NO": 999,
    "REV_AT_EPOCH": 482,
    "BSTAR": 0.0,
    "MEAN_MOTION_DOT": -0.00014632,
    "MEAN_MOTION_DDOT": 0.0,
    "TLE_LINE1": "1 66059U 25235B   25315.33336806 -.00014632  00000+0 -25564-3 0  9993",
    "TLE_LINE2": "2 66059  53.1599  77.2860 0001177  77.0182 103.4077 15.49293649  4829",
    "COMMENT": "Grouped by shell and plane from TLE"
  },
  {
    "OBJECT_NAME": "STARLINK-35558",
    "OBJECT_ID": "25235C",
    "EPOCH": "2025-11-11T08:00:03.000384",
    "MEAN_MOTION": 15.49259541,
    "ECCENTRICITY": 0.000126,
    "INCLINATION": 53.1599,
    "RA_OF_ASC_NODE": 77.2811,
    "ARG_OF_PERICENTER": 71.8678,
    "MEAN_ANOMALY": 110.4763,
    "EPHEMERIS_TYPE": 0,
    "CLASSIFICATION_TYPE": "U",
    "NORAD_CAT_ID": 66060,
    "ELEMENT_SET_NO": 999,
    "REV_AT_EPOCH": 482,
    "BSTAR": 0.0013342000000000002,
    "MEAN_MOTION_DOT": 0.00074335,
    "MEAN_MOTION_DDOT": 0.0,
    "TLE_LINE1": "1 66060U 25235C   25315.33336806  .00074335  00000+0  13342-2 0  9999",
    "TLE_LINE2": "2 66060  53.1599  77.2811 0001260  71.8678 110.4763 15.49259541  4825",
    "COMMENT": "Grouped by shell and plane from TLE"
  },
  {
    "OBJECT_NAME": "STARLINK-35566",
    "OBJECT_ID": "25235D",
    "EPOCH": "2025-11-11T08:00:03.000384",
    "MEAN_MOTION": 15.49297062,
    "ECCENTRICITY": 0.0001264,
    "INCLINATION": 53.1599,
    "RA_OF_ASC_NODE": 77.278,
    "ARG_OF_PERICENTER": 77.3963,
    "MEAN_ANOMALY": 106.861,
    "EPHEMERIS_TYPE": 0,
    "CLASSIFICATION_TYPE": "U",
    "NORAD_CAT_ID": 66061,
    "ELEMENT_SET_NO": 999,
    "REV_AT_EPOCH": 482,
    "BSTAR": 0.0,
    "MEAN_MOTION_DOT": -0.00017706,
    "MEAN_MOTION_DDOT": 0.0,
    "TLE_LINE1": "1 66061U 25235D   25315.33336806 -.00017706  00000+0 -31114-3 0  9999",
    "TLE_LINE2": "2 66061  53.1599  77.2780 0001264  77.3963 106.8610 15.49297062  4823",
    "COMMENT": "Grouped by shell and plane from TLE"
  },
  {
    "OBJECT_NAME": "STARLINK-35421",
    "OBJECT_ID": "25235E",
    "EPOCH": "2025-11-11T08:00:03.000384",
    "MEAN_MOTION": 15.4929842,
    "ECCENTRICITY": 0.0001259,
    "INCLINATION": 53.1599,
    "RA_OF_ASC_NODE": 77.2733,
    "ARG_OF_PERICENTER": 72.3281,
    "MEAN_ANOMALY": 113.8489,
    "EPHEMERIS_TYPE": 0,
    "CLASSIFICATION_TYPE": "U",
    "NORAD_CAT_ID": 66062,
    "ELEMENT_SET_NO": 999,
    "REV_AT_EPOCH": 482,
    "BSTAR": 0.0,
    "MEAN_MOTION_DOT": -0.00022705,
    "MEAN_MOTION_DDOT": 0.0,
    "TLE_LINE1": "1 66062U 25235E   25315.33336806 -.00022705  00000+0 -40150-3 0  9995",
    "TLE_LINE2": "2 66062  53.1599  77.2733 0001259  72.3281 113.8489 15.49298420  4825",
    "COMMENT": "Grouped by shell and plane from TLE"
  },
  {
    "OBJECT_NAME": "STARLINK-35562",
    "OBJECT_ID": "25235F",
    "EPOCH": "2025-11-11T08:00:03.000384",
    "MEAN_MOTION": 15.49290968,
    "ECCENTRICITY": 0.0001271,
    "INCLINATION": 53.16,
    "RA_OF_ASC_NODE": 77.2701,
    "ARG_OF_PERICENTER": 99.5998,
    "MEAN_ANOMALY": 88.4941,
    "EPHEMERIS_TYPE": 0,
    "CLASSIFICATION_TYPE": "U",
    "NORAD_CAT_ID": 66063,
    "ELEMENT_SET_NO": 999,
    "REV_AT_EPOCH": 482,
    "BSTAR": 0.0,
    "MEAN_MOTION_DOT": -6.4e-05,
    "MEAN_MOTION_DDOT": 0.0,
    "TLE_LINE1": "1 66063U 25235F   25315.33336806 -.00006400  00000+0 -10717-3 0  9996",
    "TLE_LINE2": "2 66063  53.1600  77.2701 0001271  99.5998  88.4941 15.49290968  4823",
    "COMMENT": "Grouped by shell and plane from TLE"
  },
  {
    "OBJECT_NAME": "STARLINK-35542",
    "OBJECT_ID": "25235G",
    "EPOCH": "2025-11-11T08:00:03.000384",
    "MEAN_MOTION": 15.45354886,
    "ECCENTRICITY": 0.0001391,
    "INCLINATION": 53.1597,
    "RA_OF_ASC_NODE": 77.2773,
    "ARG_OF_PERICENTER": 79.8785,
    "MEAN_ANOMALY": 103.8716,
    "EPHEMERIS_TYPE": 0,
    "CLASSIFICATION_TYPE": "U",
    "NORAD_CAT_ID": 66064,
    "ELEMENT_SET_NO": 999,
    "REV_AT_EPOCH": 482,
    "BSTAR": 0.0,
    "MEAN_MOTION_DOT": -0.02037484,
    "MEAN_MOTION_DDOT": 0.0,
    "TLE_LINE1": "1 66064U 25235G   25315.33336806 -.02037484  00000+0 -47207-1 0  9997",
    "TLE_LINE2": "2 66064  53.1597  77.2773 0001391  79.8785 103.8716 15.45354886  4824",
    "COMMENT": "Grouped by shell and plane from TLE"
  },
  {
    "OBJECT_NAME": "STARLINK-35375",
    "OBJECT_ID": "25235H",
    "EPOCH": "2025-11-11T08:00:03.000384",
    "MEAN_MOTION": 15.48433539,
    "ECCENTRICITY": 0.0001418,
    "INCLINATION": 53.1598,
    "RA_OF_ASC_NODE": 77.2626,
    "ARG_OF_PERICENTER": 112.226,
    "MEAN_ANOMALY": 79.3776,
    "EPHEMERIS_TYPE": 0,
    "CLASSIFICATION_TYPE": "U",
    "NORAD_CAT_ID": 66065,
    "ELEMENT_SET_NO": 999,
    "REV_AT_EPOCH": 482,
    "BSTAR": 0.0,
    "MEAN_MOTION_DOT": -0.02038621,
    "MEAN_MOTION_DDOT": 0.0,
    "TLE_LINE1": "1 66065U 25235H   25315.33336806 -.02038621  00000+0 -42421-1 0  9995",
    "TLE_LINE2": "2 66065  53.1598  77.2626 0001418 112.2260  79.3776 15.48433539  4822",
    "COMMENT": "Grouped by shell and plane from TLE"
  },
  {
    "OBJECT_NAME": "STARLINK-35179",
    "OBJECT_ID": "25235J",
    "EPOCH": "2025-11-11T08:00:03.000384",
    "MEAN_MOTION": 15.49286695,
    "ECCENTRICITY": 0.0001239,
    "INCLINATION": 53.1599,
    "RA_OF_ASC_NODE": 77.2581,
    "ARG_OF_PERICENTER": 71.1987,
    "MEAN_ANOMALY": 122.6468,
    "EPHEMERIS_TYPE": 0,
    "CLASSIFICATION_TYPE": "U",
    "NORAD_CAT_ID": 66066,
    "ELEMENT_SET_NO": 999,
    "REV_AT_EPOCH": 482,
    "BSTAR": 0.0,
    "MEAN_MOTION_DOT": -1.161e-05,
    "MEAN_MOTION_DDOT": 0.0,
    "TLE_LINE1": "1 66066U 25235J   25315.33336806 -.00001161  00000+0 -12831-4 0  9998",
    "TLE_LINE2": "2 66066  53.1599  77.2581 0001239  71.1987 122.6468 15.49286695  4824",
    "COMMENT": "Grouped by shell and plane from TLE"
  },
  {
    "OBJECT_NAME": "STARLINK-35401",
    "OBJECT_ID": "25235K",
    "EPOCH": "2025-11-11T08:00:03.000384",
    "MEAN_MOTION": 15.49218486,
    "ECCENTRICITY": 0.0001244,
    "INCLINATION": 53.1599,
    "RA_OF_ASC_NODE": 77.2538,
    "ARG_OF_PERICENTER": 75.8867,
    "MEAN_ANOMALY": 119.8921,
    "EPHEMERIS_TYPE": 0,
    "CLASSIFICATION_TYPE": "U",
    "NORAD_CAT_ID": 66067,
    "ELEMENT_SET_NO": 999,
    "REV_AT_EPOCH": 478,
    "BSTAR": 0.0019164000000000002,
    "MEAN_MOTION_DOT": 0.00107267,
    "MEAN_MOTION_DDOT": 0.0,
    "TLE_LINE1": "1 66067U 25235K   25315.33336806  .00107267  00000+0  19164-2 0  9995",
    "TLE_LINE2": "2 66067  53.1599  77.2538 0001244  75.8867 119.8921 15.49218486  4781",
    "COMMENT": "Grouped by shell and plane from TLE"
  },
  {
    "OBJECT_NAME": "STARLINK-35422",
    "OBJECT_ID": "25235L",
    "EPOCH": "2025-11-11T08:00:03.000384",
    "MEAN_MOTION": 15.49300241,
    "ECCENTRICITY": 0.0001298,
    "INCLINATION": 53.1599,
    "RA_OF_ASC_NODE": 77.2497,
    "ARG_OF_PERICENTER": 71.0118,
    "MEAN_ANOMALY": 126.6597,
    "EPHEMERIS_TYPE": 0,
    "CLASSIFICATION_TYPE": "U",
    "NORAD_CAT_ID": 66068,
    "ELEMENT_SET_NO": 999,
    "REV_AT_EPOCH": 478,
    "BSTAR": 0.0,
    "MEAN_MOTION_DOT": -0.00020803,
    "MEAN_MOTION_DDOT": 0.0,
    "TLE_LINE1": "1 66068U 25235L   25315.33336806 -.00020803  00000+0 -36707-3 0  9991",
    "TLE_LINE2": "2 66068  53.1599  77.2497 0001298  71.0118 126.6597 15.49300241  4788",
    "COMMENT": "Grouped by shell and plane from TLE"
  },
  {
    "OBJECT_NAME": "STARLINK-35279",
    "OBJECT_ID": "25235M",
    "EPOCH": "2025-11-11T08:00:03.000384",
    "MEAN_MOTION": 15.49292208,
    "ECCENTRICITY": 0.0001309,
    "INCLINATION": 53.1599,
    "RA_OF_ASC_NODE": 77.2461,
    "ARG_OF_PERICENTER": 69.7672,
    "MEAN_ANOMALY": 129.8262,
    "EPHEMERIS_TYPE": 0,
    "CLASSIFICATION_TYPE": "U",
    "NORAD_CAT_ID": 66069,
    "ELEMENT_SET_NO": 999,
    "REV_AT_EPOCH": 482,
    "BSTAR": 0.0,
    "MEAN_MOTION_DOT": -8.631e-05,
    "MEAN_MOTION_DDOT": 0.0,
    "TLE_LINE1": "1 66069U 25235M   25315.33336806 -.00008631  00000+0 -14739-3 0  9998",
    "TLE_LINE2": "2 66069  53.1599  77.2461 0001309  69.7672 129.8262 15.49292208  4824",
    "COMMENT": "Grouped by shell and plane from TLE"
  }
]